360P/WISE,e,24.1083,2.2159,354.2250,3.697764,0.1386102,0.49921199,324.1391,01/19.0/2024,2000,g 19.5,6.0
# From MPEC 2023-CD7
361P/Spacewatch,e,13.9030,203.2575,219.0412,4.933912,0.0899326,0.43948570,181.9769,01/19.0/2024,2000,g 12.0,4.0
# From MPEC 2017-V13
362P/,e,15.5555,192.4956,53.5546,3.973435,0.1244386,0.27870287,337.1965,01/19.0/2024,2000,g 12.9,2.0
# From MPC114609
363P/Lemmon,e,5.3908,146.6853,340.8777,3.575681,0.1457693,0.51906012,316.3840,01/19.0/2024,2000,g 17.5,4.0
# From MPEC 2023-XP6
364P/PANSTARRS,e,12.1374,46.1475,212.0606,2.881893,0.2014593,0.72181779,50.3540,01/19.0/2024,2000,g 17.0,2.0
# From MPC111775
365P/PANSTARRS,e,9.8493,86.6571,67.4308,3.156395,0.1757588,0.58139097,17.8578,01/19.0/2024,2000,g 17.0,4.0
# From MPC114610
366P/Spacewatch,e,8.8570,70.7238,153.0318,3.498161,0.1506414,0.34826600,303.0536,01/19.0/2024,2000,g 15.0,4.0
# From MPC112395
367P/Catalina,e,8.4597,58.6611,172.7516,3.509668,0.1499012,0.27980103,306.2181,01/19.0/2024,2000,g 17.5,2.0
# From MPC114610
368P/NEAT,e,15.4803,257.8765,118.9354,5.531931,0.0757511,0.62647554,147.7870,01/19.0/2024,2000,g 14.0,4.0
# From MPC114610
369P/Hill,e,10.3230,47.2985,13.1789,4.380185,0.1075141,0.55583771,206.3126,01/19.0/2024,2000,g 15.0,4.0
# From MPEC 2021-F20
370P/NEAT,e,19.4234,55.0818,356.7293,6.436642,0.0603553,0.61553943,123.5423,01/19.0/2024,2000,g 13.0,4.0
# From MPC114610
371P/LINEAR-Skiff,e,17.3841,67.2850,308.5542,4.180503,0.1153085,0.47700111,222.5167,01/19.0/2024,2000,g 16.0,4.0
# From MPEC 2020-K19
372P/McNaught,e,9.5080,27.5499,326.0119,4.510212,0.1028984,0.15195147,196.7893,01/19.0/2024,2000,g 13.5,4.0
# From MPEC 2021-F20
373P/Rinner,e,13.7704,231.9465,221.0430,3.799171,0.1330978,0.39347179,232.2267,01/19.0/2024,2000,g 14.5,4.0
# From MPC114610
374P/Larson,e,10.7665,7.9110,51.4862,4.971093,0.0889255,0.46372578,162.8914,01/19.0/2024,2000,g 14.0,4.0
# From MPEC 2021-F20
375P/Hill,e,17.3646,359.9083,119.3722,5.547446,0.0754335,0.65958953,139.8698,01/19.0/2024,2000,g 16.0,4.0
# From MPEC 2022-K19
376P/LONEOS,e,1.1665,312.9312,285.3910,5.758221,0.0713299,0.51433567,113.0796,01/19.0/2024,2000,g 12.5,4.0
# From MPEC 2022-N37
377P/Scotti,e,9.0242,226.0485,354.9113,6.698874,0.0568462,0.25108906,73.2169,01/19.0/2024,2000,g  9.5,4.0
# From MPEC 2024-AF0
378P/McNaught,e,19.1174,93.8765,193.4504,6.300321,0.0623247,0.46586336,74.3654,01/19.0/2024,2000,g 12.0,4.0
# From MPC115889
379P/Spacewatch,e,12.4529,30.5781,184.0645,3.494341,0.1508885,0.34879630,244.5102,01/19.0/2024,2000,g 15.0,4.0
# From MPEC 2023-C45
380P/PANSTARRS,e,8.0129,128.5791,87.7643,4.417533,0.1061535,0.33957551,183.3418,01/19.0/2024,2000,g 12.5,4.0
# From MPEC 2021-J28
381P/LINEAR-Spacewatch,e,28.3664,173.2836,173.8396,7.142125,0.0516372,0.68134204,81.3428,01/19.0/2024,2000,g 17.5,2.0
# From MPEC 2022-Y15
382P/Larson,e,8.3067,172.6302,162.8624,5.992520,0.0671877,0.27412218,52.4277,01/19.0/2024,2000,g  8.0,4.0
# From MPEC 2022-OB6
383P/Christensen,e,12.3213,207.8500,133.7606,3.547783,0.1474920,0.59894477,227.9556,01/19.0/2024,2000,g 18.0,4.0
# From MPEC 2022-OB6
384P/Kowalski,e,7.2831,354.2042,37.6966,2.898705,0.1997092,0.61630372,311.2438,01/19.0/2024,2000,g 19.5,4.0
# From MPEC 2021-F20
385P/Hill,e,16.8301,357.0738,44.3798,4.288702,0.1109725,0.40214379,175.9368,01/19.0/2024,2000,g 13.0,4.0
# From MPEC 2021-L04
386P/PANSTARRS,e,15.2381,134.9204,353.0818,4.050920,0.1208853,0.41689226,150.8156,01/19.0/2024,2000,g 14.5,4.0
# From MPEC 2021-J28
387P/Boattini,e,8.9336,259.2497,162.8138,4.797035,0.0938091,0.73706257,149.5452,01/19.0/2024,2000,g 15.0,4.0
# From MPEC 2021-S45
388P/Gibbs,e,23.8912,37.0328,42.3129,5.240635,0.0821539,0.61917003,134.6267,01/19.0/2024,2000,g 13.0,4.0
# From MPEC 2022-OB6
389P/Siding Spring,e,160.0868,218.8844,249.3922,5.633186,0.0737179,0.70490831,109.1461,01/19.0/2024,2000,g 16.0,4.0
# From MPEC 2022-OB6
390P/Gibbs,e,18.5517,152.2970,232.4140,5.813940,0.0703070,0.70728559,98.2285,01/19.0/2024,2000,g 12.0,4.0
# From MPEC 2021-F20
391P/Kowalski,e,21.2630,124.7919,187.2339,4.687516,0.0971158,0.11897754,206.9585,01/19.0/2024,2000,g  8.0,4.0
# From MPEC 2021-J28
392P/LINEAR,e,4.9322,24.8565,71.8868,6.140600,0.0647721,0.68364269,89.8526,01/19.0/2024,2000,g 14.5,4.0
# From MPEC 2023-T65
393P/Spacewatch-Hill,e,16.7875,36.3911,329.1197,4.796212,0.0938332,0.12004041,144.5293,01/19.0/2024,2000,g 11.0,4.0
# From MPEC 2020-KB7
394P/PANSTARRS,e,8.5298,98.1266,54.4059,4.328810,0.1094337,0.36769040,165.4153,01/19.0/2024,2000,g 16.0,2.4
# From MPEC 2023-VM5
395P/Catalina-NEAT,e,3.5756,221.0345,98.9424,7.146940,0.0515850,0.41593618,36.2543,01/19.0/2024,2000,g 10.0,4.0
# From MPEC 2020-KB7
396P/,e,5.4389,136.6301,8.3269,6.801464,0.0555649,0.41623912,89.2021,01/19.0/2024,2000,g 12.0,4.0
# From MPEC 2022-OB6
397P/Lemmon,e,10.9268,8.2270,14.5464,3.831048,0.1314400,0.40511239,171.9039,01/19.0/2024,2000,g 12.0,4.0
# From MPEC 2021-L04
398P/Boattini,e,11.0208,320.1571,127.4899,3.125758,0.1783492,0.58348714,199.3157,01/19.0/2024,2000,g 15.5,4.0
# From MPEC 2023-XP6
399P/PANSTARRS,e,13.3218,207.1304,214.3853,3.792864,0.1334299,0.44743042,129.5409,01/19.0/2024,2000,g 14.0,4.0
# From MPEC 2022-ED3
400P/PANSTARRS,e,10.9301,176.4078,238.8455,3.561904,0.1466158,0.40970762,157.1970,01/19.0/2024,2000,g 15.5,2.8
# From MPEC 2022-K19
401P/McNaught,e,12.8019,359.9015,309.4307,5.777921,0.0709654,0.57889641,106.8242,01/19.0/2024,2000,g 12.5,4.0
# From MPEC 2023-M14
402P/LINEAR,e,30.8347,123.0756,326.8340,7.032368,0.0528508,0.43988847,40.4165,01/19.0/2024,2000,g 11.2,4.0
# From MPEC 2021-J28
403P/Catalina,e,12.3269,277.5855,163.8807,5.430045,0.0778931,0.50422031,94.9427,01/19.0/2024,2000,g 12.0,4.0
# From MPEC 2024-AF0
404P/Bressi,e,9.7982,260.0352,169.3949,4.732107,0.0957464,0.12667256,7.2461,01/19.0/2024,2000,g 10.0,4.0
# From MPEC 2021-L04
405P/Lemmon,e,9.3737,112.1899,3.2950,3.605029,0.1439929,0.68973792,161.3217,01/19.0/2024,2000,g 17.5,4.0
# From MPEC 2021-F20
406P/Gibbs,e,1.2115,352.4191,11.5336,3.578081,0.1456226,0.54166061,177.6691,01/19.0/2024,2000,g 17.0,4.0
# From MPEC 2022-YN2
407P/PANSTARRS-Fuls,e,4.8754,80.2607,93.5216,3.483501,0.1515933,0.37743355,220.7268,01/19.0/2024,2000,g 14.0,4.0
# From MPEC 2024-AF0
408P/Novichonok-Gerke,e,19.3566,189.4432,226.5607,4.742984,0.0954172,0.26870901,44.8836,01/19.0/2024,2000,g 11.0,4.0
# From MPEC 2022-ED3
409P/LONEOS-Hill,e,17.1309,143.6513,15.0624,6.034767,0.0664834,0.70978103,72.1980,01/19.0/2024,2000,g 14.0,4.0
# From MPEC 2022-M21
410P/NEAT-LINEAR,e,9.3894,139.9770,313.1378,6.646683,0.0575171,0.51155997,54.0027,01/19.0/2024,2000,g 12.5,4.0
# From MPEC 2021-J28
411P/Christensen,e,12.3880,77.6523,46.5615,5.811518,0.0703509,0.58127346,76.6364,01/19.0/2024,2000,g 13.5,4.0
# From MPEC 2021-F20
412P/WISE,e,8.9311,0.8455,155.9074,3.110437,0.1796685,0.47894260,204.9533,01/19.0/2024,2000,g 17.0,4.0
# From MPEC 2022-OB6
413P/Larson,e,15.9840,39.2232,186.5209,3.730121,0.1368106,0.42038864,124.9805,01/19.0/2024,2000,g 14.0,4.0
# From MPEC 2021-BE3
414P/STEREO,e,23.4055,257.8154,210.6861,2.792954,0.2111584,0.81204296,229.8435,01/19.0/2024,2000,g 19.0,4.0
# From MPEC 2022-J42
415P/Tenagra,e,31.7955,160.2739,345.9015,4.110208,0.1182792,0.19497924,126.5003,01/19.0/2024,2000,g 12.0,4.0
# From MPEC 2021-L04
416P/Scotti,e,3.3616,355.7746,134.4048,4.008155,0.1228251,0.45484482,131.1040,01/19.0/2024,2000,g 15.5,4.0
# From MPEC 2021-W31
417P/NEOWISE,e,8.1765,126.4137,113.4864,3.317616,0.1631041,0.56680745,162.4235,01/19.0/2024,2000,g 16.5,4.0
# From MPEC 2022-TA0
418P/LINEAR,e,5.7802,277.6625,307.3600,5.095019,0.0857009,0.66390879,70.6187,01/19.0/2024,2000,g 13.0,4.0
# From MPEC 2023-UR6
419P/PANSTARRS,e,2.8020,40.4035,187.8287,3.526082,0.1488557,0.27649493,121.0481,01/19.0/2024,2000,g 12.5,4.0
# From MPEC 2024-A43
420P/Hill,e,14.4860,173.8325,156.6010,5.508989,0.0762248,0.49562046,46.3940,01/19.0/2024,2000,g 11.5,4.0
# From MPEC 2021-W31
421P/McNaught,e,10.0758,55.3317,259.8983,5.076461,0.0861713,0.67479745,93.8290,01/19.0/2024,2000,g 14.0,4.0
# From MPEC 2022-X67
422P/Christensen,e,39.5847,36.0273,304.8625,6.285018,0.0625525,0.50653207,46.0926,01/19.0/2024,2000,g 11.0,4.0
# From MPEC 2023-FK0
423P/Lemmon,e,8.3460,33.2968,80.4797,6.175220,0.0642281,0.12231655,54.5968,01/19.0/2024,2000,g  8.0,4.0
# From MPEC 2022-CN4
424P/LaSagra,e,8.6831,51.1920,312.5425,4.418922,0.1061035,0.69103320,85.8854,01/19.0/2024,2000,g 17.0,4.0
# From MPEC 2023-BF4
425P/Kowalski,e,16.4208,210.0744,200.8897,6.344589,0.0616735,0.54403643,52.4235,01/19.0/2024,2000,g 12.0,4.0
# From MPEC 2024-A43
426P/PANSTARRS,e,17.7755,280.4008,118.6823,3.189285,0.1730470,0.16169139,22.3788,01/19.0/2024,2000,g 13.5,4.0
# From MPEC 2023-J29
428P/Gibbs,e,8.5071,299.3323,36.8974,3.486901,0.1513717,0.51883346,148.3000,01/19.0/2024,2000,g 15.0,4.0
# From MPEC 2022-H04
429P/LINEAR-Hill,e,7.5182,322.0959,75.6074,3.554120,0.1470977,0.49134610,109.8356,01/19.0/2024,2000,g 15.5,4.0
# From MPEC 2022-L66
430P/Scotti,e,4.4753,54.6718,94.4261,3.104407,0.1801922,0.49975967,140.1543,01/19.0/2024,2000,g 16.5,4.0
# From MPEC 2023-D72
431P/Scotti,e,22.3915,202.8428,199.9492,3.475483,0.1521182,0.47775414,107.1597,01/19.0/2024,2000,g 14.0,4.0
# From MPEC 2021-U31
432P/PANSTARRS,e,10.0682,239.1313,105.3205,3.036718,0.1862504,0.24142606,162.3847,01/19.0/2024,2000,g 17.0,4.0
# From MPEC 2022-OB6
434P/Tenagra,e,6.3367,289.0090,128.2129,4.133086,0.1172985,0.27472375,95.5069,01/19.0/2024,2000,g 13.0,4.0
# From MPEC 2021-W31
435P/PANSTARRS,e,18.8754,98.5381,244.2410,3.020126,0.1877874,0.31812102,170.0933,01/19.0/2024,2000,g 17.0,4.0
# From MPEC 2022-X67
436P/Garradd,e,20.2020,87.1715,282.6944,5.934349,0.0681780,0.66966370,52.6018,01/19.0/2024,2000,g 14.5,4.0
# From MPEC 2023-B57
437P/Lemmon-PANSTARRS,e,3.6888,245.8467,206.8676,4.564796,0.1010583,0.25496862,52.3244,01/19.0/2024,2000,g 13.0,4.0
# From MPEC 2021-W47
438P/Christensen,e,8.2814,260.1209,59.0387,3.850339,0.1304534,0.41472689,180.6372,01/19.0/2024,2000,g 14.5,4.0
# From MPEC 2022-C56
